ONEWEB-0209             
1 48215U 21031F   25245.82167224  .00000119  00000+0  28766-3 0  9999
2 48215  87.9093 346.9274 0001823 104.4974 255.6358 13.14502360210626
ONEWEB-0198             
1 48216U 21031G   25245.80581951  .00003151  00000+0  84640-2 0  9996
2 48216  87.9091 346.9302 0001908 105.3244 254.8097 13.14487621210736
ONEWEB-0189             
1 48217U 21031H   25245.81849911  .00000193  00000+0  48578-3 0  9995
2 48217  87.9090 346.9014 0001499 109.9001 250.2291 13.14503485210476
ONEWEB-0196             
1 48218U 21031J   25245.79630185  .00000509  00000+0  13395-2 0  9993
2 48218  87.9089 346.9205 0002021 100.5981 259.5376 13.14498780210470
ONEWEB-0183             
1 48219U 21031K   25245.84703532 -.00000273  00000+0 -77016-3 0  9998
2 48219  87.9087 346.9204 0002024 101.2774 258.8583 13.14501820210572
ONEWEB-0185             
1 48220U 21031L   25245.72096451  .00000118  00000+0  28475-3 0  9993
2 48220  87.9094 346.9116 0002109 109.8846 250.2512 13.14503640210482
ONEWEB-0187             
1 48221U 21031M   25245.77713077 -.00000204  00000+0 -58456-3 0  9999
2 48221  87.9092 346.9466 0001902 109.8498 250.2837 13.14502446210508
ONEWEB-0192             
1 48222U 21031N   25245.82325537  .00000068  00000+0  14953-3 0  9996
2 48222  87.9091 346.9310 0001725 100.9995 259.1329 13.14502740210425
ONEWEB-0219             
1 48223U 21031P   25245.72652174  .00000179  00000+0  44922-3 0  9998
2 48223  87.9094 346.9230 0001967 107.9536 252.1809 13.14502329210616
ONEWEB-0202             
1 48224U 21031Q   25245.78360560 -.00000180  00000+0 -52031-3 0  9994
2 48224  87.9090 346.9258 0001182 118.4826 241.6423 13.14502468210609
ONEWEB-0204             
1 48225U 21031R   25245.81770481  .00000184  00000+0  46289-3 0  9996
2 48225  87.9081 346.9098 0002092  98.2574 261.8793 13.14503003210507
ONEWEB-0205             
1 48226U 21031S   25245.71700403  .00000001  00000+0 -32354-4 0  9991
2 48226  87.9090 346.9207 0001945 108.1924 251.9417 13.14502906210500
ONEWEB-0206             
1 48227U 21031T   25245.84228416 -.00000301  00000+0 -84503-3 0  9991
2 48227  87.9096 346.8770 0001895 101.7294 258.4048 13.14501740210477
ONEWEB-0182             
1 48228U 21031U   25245.83752506 -.00000252  00000+0 -71284-3 0  9990
2 48228  87.9090 346.9214 0002015 100.6228 259.5129 13.14503604210682
ONEWEB-0186             
1 48229U 21031V   25245.84862911 -.00000245  00000+0 -69432-3 0  9998
2 48229  87.9094 346.8816 0001822 103.5128 256.6205 13.14503043210635
ONEWEB-0181             
1 48230U 21031W   25245.82641782  .00000076  00000+0  17075-3 0  9995
2 48230  87.9087 346.9578 0001682 104.7942 255.3374 13.14501542210484
