[{"OBJECT_NAME":"ONEWEB-0209","OBJECT_ID":"2021-031F","EPOCH":"2025-09-02T19:43:12.481536","MEAN_MOTION":13.1450236,"ECCENTRICITY":0.0001823,"INCLINATION":87.9093,"RA_OF_ASC_NODE":346.9274,"ARG_OF_PERICENTER":104.4974,"MEAN_ANOMALY":255.6358,"EPHEMERIS_TYPE":0,"CLASSIFICATION_TYPE":"U","NORAD_CAT_ID":48215,"ELEMENT_SET_NO":999,"REV_AT_EPOCH":21062,"BSTAR":0.00028766212,"MEAN_MOTION_DOT":1.19e-6,"MEAN_MOTION_DDOT":0},{"OBJECT_NAME":"ONEWEB-0198","OBJECT_ID":"2021-031G","EPOCH":"2025-09-02T19:20:22.805664","MEAN_MOTION":13.14487621,"ECCENTRICITY":0.00019084,"INCLINATION":87.9091,"RA_OF_ASC_NODE":346.9302,"ARG_OF_PERICENTER":105.3244,"MEAN_ANOMALY":254.8097,"EPHEMERIS_TYPE":0,"CLASSIFICATION_TYPE":"U","NORAD_CAT_ID":48216,"ELEMENT_SET_NO":999,"REV_AT_EPOCH":21073,"BSTAR":0.0084640058,"MEAN_MOTION_DOT":3.151e-5,"MEAN_MOTION_DDOT":0},{"OBJECT_NAME":"ONEWEB-0189","OBJECT_ID":"2021-031H","EPOCH":"2025-09-02T19:38:38.323104","MEAN_MOTION":13.14503485,"ECCENTRICITY":0.00014998,"INCLINATION":87.909,"RA_OF_ASC_NODE":346.9014,"ARG_OF_PERICENTER":109.9001,"MEAN_ANOMALY":250.2291,"EPHEMERIS_TYPE":0,"CLASSIFICATION_TYPE":"U","NORAD_CAT_ID":48217,"ELEMENT_SET_NO":999,"REV_AT_EPOCH":21047,"BSTAR":0.00048577727,"MEAN_MOTION_DOT":1.93e-6,"MEAN_MOTION_DDOT":0},{"OBJECT_NAME":"ONEWEB-0196","OBJECT_ID":"2021-031J","EPOCH":"2025-09-02T19:06:40.479840","MEAN_MOTION":13.1449878,"ECCENTRICITY":0.00020211,"INCLINATION":87.9089,"RA_OF_ASC_NODE":346.9205,"ARG_OF_PERICENTER":100.5981,"MEAN_ANOMALY":259.5376,"EPHEMERIS_TYPE":0,"CLASSIFICATION_TYPE":"U","NORAD_CAT_ID":48218,"ELEMENT_SET_NO":999,"REV_AT_EPOCH":21047,"BSTAR":0.0013394829,"MEAN_MOTION_DOT":5.09e-6,"MEAN_MOTION_DDOT":0},{"OBJECT_NAME":"ONEWEB-0183","OBJECT_ID":"2021-031K","EPOCH":"2025-09-02T20:19:43.851648","MEAN_MOTION":13.1450182,"ECCENTRICITY":0.00020246,"INCLINATION":87.9087,"RA_OF_ASC_NODE":346.9204,"ARG_OF_PERICENTER":101.2774,"MEAN_ANOMALY":258.8583,"EPHEMERIS_TYPE":0,"CLASSIFICATION_TYPE":"U","NORAD_CAT_ID":48219,"ELEMENT_SET_NO":999,"REV_AT_EPOCH":21057,"BSTAR":-0.00077015684,"MEAN_MOTION_DOT":-2.73e-6,"MEAN_MOTION_DDOT":0},{"OBJECT_NAME":"ONEWEB-0185","OBJECT_ID":"2021-031L","EPOCH":"2025-09-02T17:18:11.333664","MEAN_MOTION":13.1450364,"ECCENTRICITY":0.00021095,"INCLINATION":87.9094,"RA_OF_ASC_NODE":346.9116,"ARG_OF_PERICENTER":109.8846,"MEAN_ANOMALY":250.2512,"EPHEMERIS_TYPE":0,"CLASSIFICATION_TYPE":"U","NORAD_CAT_ID":48220,"ELEMENT_SET_NO":999,"REV_AT_EPOCH":21048,"BSTAR":0.00028475311,"MEAN_MOTION_DOT":1.18e-6,"MEAN_MOTION_DDOT":0},{"OBJECT_NAME":"ONEWEB-0187","OBJECT_ID":"2021-031M","EPOCH":"2025-09-02T18:39:04.098528","MEAN_MOTION":13.14502446,"ECCENTRICITY":0.00019024,"INCLINATION":87.9092,"RA_OF_ASC_NODE":346.9466,"ARG_OF_PERICENTER":109.8498,"MEAN_ANOMALY":250.2837,"EPHEMERIS_TYPE":0,"CLASSIFICATION_TYPE":"U","NORAD_CAT_ID":48221,"ELEMENT_SET_NO":999,"REV_AT_EPOCH":21050,"BSTAR":-0.00058455596,"MEAN_MOTION_DOT":-2.04e-6,"MEAN_MOTION_DDOT":0},{"OBJECT_NAME":"ONEWEB-0192","OBJECT_ID":"2021-031N","EPOCH":"2025-09-02T19:45:29.263968","MEAN_MOTION":13.1450274,"ECCENTRICITY":0.00017253,"INCLINATION":87.9091,"RA_OF_ASC_NODE":346.931,"ARG_OF_PERICENTER":100.9995,"MEAN_ANOMALY":259.1329,"EPHEMERIS_TYPE":0,"CLASSIFICATION_TYPE":"U","NORAD_CAT_ID":48222,"ELEMENT_SET_NO":999,"REV_AT_EPOCH":21042,"BSTAR":0.00014953443,"MEAN_MOTION_DOT":6.8e-7,"MEAN_MOTION_DDOT":0},{"OBJECT_NAME":"ONEWEB-0219","OBJECT_ID":"2021-031P","EPOCH":"2025-09-02T17:26:11.478336","MEAN_MOTION":13.14502329,"ECCENTRICITY":0.00019674,"INCLINATION":87.9094,"RA_OF_ASC_NODE":346.923,"ARG_OF_PERICENTER":107.9536,"MEAN_ANOMALY":252.1809,"EPHEMERIS_TYPE":0,"CLASSIFICATION_TYPE":"U","NORAD_CAT_ID":48223,"ELEMENT_SET_NO":999,"REV_AT_EPOCH":21061,"BSTAR":0.00044922496,"MEAN_MOTION_DOT":1.79e-6,"MEAN_MOTION_DDOT":0},{"OBJECT_NAME":"ONEWEB-0202","OBJECT_ID":"2021-031Q","EPOCH":"2025-09-02T18:48:23.523840","MEAN_MOTION":13.14502468,"ECCENTRICITY":0.00011825,"INCLINATION":87.909,"RA_OF_ASC_NODE":346.9258,"ARG_OF_PERICENTER":118.4826,"MEAN_ANOMALY":241.6423,"EPHEMERIS_TYPE":0,"CLASSIFICATION_TYPE":"U","NORAD_CAT_ID":48224,"ELEMENT_SET_NO":999,"REV_AT_EPOCH":21060,"BSTAR":-0.00052030645,"MEAN_MOTION_DOT":-1.8e-6,"MEAN_MOTION_DDOT":0},{"OBJECT_NAME":"ONEWEB-0204","OBJECT_ID":"2021-031R","EPOCH":"2025-09-02T19:37:29.695584","MEAN_MOTION":13.14503003,"ECCENTRICITY":0.00020922,"INCLINATION":87.9081,"RA_OF_ASC_NODE":346.9098,"ARG_OF_PERICENTER":98.2574,"MEAN_ANOMALY":261.8793,"EPHEMERIS_TYPE":0,"CLASSIFICATION_TYPE":"U","NORAD_CAT_ID":48225,"ELEMENT_SET_NO":999,"REV_AT_EPOCH":21050,"BSTAR":0.00046288742,"MEAN_MOTION_DOT":1.84e-6,"MEAN_MOTION_DDOT":0},{"OBJECT_NAME":"ONEWEB-0205","OBJECT_ID":"2021-031S","EPOCH":"2025-09-02T17:12:29.148192","MEAN_MOTION":13.14502906,"ECCENTRICITY":0.00019459,"INCLINATION":87.909,"RA_OF_ASC_NODE":346.9207,"ARG_OF_PERICENTER":108.1924,"MEAN_ANOMALY":251.9417,"EPHEMERIS_TYPE":0,"CLASSIFICATION_TYPE":"U","NORAD_CAT_ID":48226,"ELEMENT_SET_NO":999,"REV_AT_EPOCH":21050,"BSTAR":-3.2353749e-5,"MEAN_MOTION_DOT":1.0e-8,"MEAN_MOTION_DDOT":0},{"OBJECT_NAME":"ONEWEB-0206","OBJECT_ID":"2021-031T","EPOCH":"2025-09-02T20:12:53.351424","MEAN_MOTION":13.1450174,"ECCENTRICITY":0.0001895,"INCLINATION":87.9096,"RA_OF_ASC_NODE":346.877,"ARG_OF_PERICENTER":101.7294,"MEAN_ANOMALY":258.4048,"EPHEMERIS_TYPE":0,"CLASSIFICATION_TYPE":"U","NORAD_CAT_ID":48227,"ELEMENT_SET_NO":999,"REV_AT_EPOCH":21047,"BSTAR":-0.00084503442,"MEAN_MOTION_DOT":-3.01e-6,"MEAN_MOTION_DDOT":0},{"OBJECT_NAME":"ONEWEB-0182","OBJECT_ID":"2021-031U","EPOCH":"2025-09-02T20:06:02.165184","MEAN_MOTION":13.14503604,"ECCENTRICITY":0.00020156,"INCLINATION":87.909,"RA_OF_ASC_NODE":346.9214,"ARG_OF_PERICENTER":100.6228,"MEAN_ANOMALY":259.5129,"EPHEMERIS_TYPE":0,"CLASSIFICATION_TYPE":"U","NORAD_CAT_ID":48228,"ELEMENT_SET_NO":999,"REV_AT_EPOCH":21068,"BSTAR":-0.00071284012,"MEAN_MOTION_DOT":-2.52e-6,"MEAN_MOTION_DDOT":0},{"OBJECT_NAME":"ONEWEB-0186","OBJECT_ID":"2021-031V","EPOCH":"2025-09-02T20:22:01.555104","MEAN_MOTION":13.14503043,"ECCENTRICITY":0.0001822,"INCLINATION":87.9094,"RA_OF_ASC_NODE":346.8816,"ARG_OF_PERICENTER":103.5128,"MEAN_ANOMALY":256.6205,"EPHEMERIS_TYPE":0,"CLASSIFICATION_TYPE":"U","NORAD_CAT_ID":48229,"ELEMENT_SET_NO":999,"REV_AT_EPOCH":21063,"BSTAR":-0.00069431659,"MEAN_MOTION_DOT":-2.45e-6,"MEAN_MOTION_DDOT":0},{"OBJECT_NAME":"ONEWEB-0181","OBJECT_ID":"2021-031W","EPOCH":"2025-09-02T19:50:02.499648","MEAN_MOTION":13.14501542,"ECCENTRICITY":0.00016827,"INCLINATION":87.9087,"RA_OF_ASC_NODE":346.9578,"ARG_OF_PERICENTER":104.7942,"MEAN_ANOMALY":255.3374,"EPHEMERIS_TYPE":0,"CLASSIFICATION_TYPE":"U","NORAD_CAT_ID":48230,"ELEMENT_SET_NO":999,"REV_AT_EPOCH":21048,"BSTAR":0.00017075021,"MEAN_MOTION_DOT":7.6e-7,"MEAN_MOTION_DDOT":0}]
